var itinerary = {"type": "FeatureCollection","name": "itinerary","crs": { "type": "name", "properties": { "name": "urn:ogc:def:crs:OGC:1.3:CRS84" } },"features": [{ "type": "Feature", "properties": { "name": "origin" }, "geometry": { "type": "Point", "coordinates":[ -71.17019385467583, 46.88585415050622 ] } },{ "type": "Feature", "properties": { "name": "destination" }, "geometry": { "type": "Point", "coordinates":[ -71.2777943192087, 46.78035452548721 ] } },{ "type": "Feature", "properties": { "from_id": 0, "to_id": 1, "option": 1, "segment": 0, "transport_mode": "TransportMode.WALK", "departure_time": "2025-03-16 17:37:18", "distance": 1082.007, "travel_time": "0 days 00:18:07", "wait_time": "0 days 00:00:00", "route": null, }, "geometry": { "type": "LineString", "coordinates": [[-71.1714352, 46.8866478], [-71.1705261, 46.8866984], [-71.1704049, 46.8866938], [-71.1703241, 46.8866662], [-71.1702837, 46.8866201], [-71.17025, 46.8865327], [-71.1700546, 46.884703], [-71.170048, 46.884641], [-71.1690594, 46.8846798], [-71.1690456, 46.8845914], [-71.168957, 46.8840196], [-71.1686677, 46.8819739], [-71.1686472, 46.8818287], [-71.168634, 46.8817344], [-71.1683039, 46.8793614], [-71.1682851, 46.8792262], [-71.1682739, 46.8791446], [-71.1680206, 46.8772854], [-71.1680006, 46.8771381], [-71.1678058, 46.8772876], [-71.167824, 46.877338]] } },{ "type": "Feature", "properties": { "from_id": 0, "to_id": 1, "option": 1, "segment": 1, "transport_mode": "TransportMode.BUS", "departure_time": "2025-03-16 17:56:28", "distance": 17728.552043804724, "travel_time": "0 days 00:47:32", "wait_time": "0 days 00:01:17", "route": "800", }, "geometry": { "type": "LineString", "coordinates": [[-71.16781452121687, 46.87730728062457], [-71.167877, 46.877266], [-71.168007, 46.877193], [-71.168159, 46.87706], [-71.168564, 46.876751], [-71.1688, 46.876541], [-71.169212, 46.87619], [-71.169434, 46.876034], [-71.169769, 46.875797], [-71.171127, 46.874981], [-71.17131, 46.874882], [-71.171455, 46.874809], [-71.171494, 46.874771], [-71.1714972196073, 46.87476870028049], [-71.171585, 46.874706], [-71.171738, 46.874607], [-71.171906, 46.874454], [-71.172371, 46.874001], [-71.172531, 46.873856], [-71.172852, 46.873585], [-71.172997, 46.873447], [-71.173309, 46.873249], [-71.173622, 46.873039], [-71.173996, 46.872807], [-71.174156, 46.872704], [-71.17427377086634, 46.872620892190064], [-71.174438, 46.872505], [-71.174782, 46.872288], [-71.175041, 46.872116], [-71.175232, 46.871952], [-71.175674, 46.871609], [-71.175873, 46.871445], [-71.17617709629346, 46.87128886697769], [-71.176208, 46.871273], [-71.176239, 46.871262], [-71.176369, 46.871208], [-71.176575, 46.871117], [-71.176758, 46.871025], [-71.176941, 46.870926], [-71.177071, 46.870853], [-71.177315, 46.870689], [-71.177628, 46.870453], [-71.177795, 46.870327], [-71.178017, 46.870136], [-71.178345, 46.869827], [-71.178665, 46.869576], [-71.178864, 46.869411], [-71.178978, 46.869312], [-71.179123, 46.86916], [-71.179314, 46.86895], [-71.179512, 46.868752], [-71.179611, 46.868652], [-71.179779, 46.868515], [-71.18005601436965, 46.86833516772067], [-71.180084, 46.868317], [-71.180122, 46.86829], [-71.180275, 46.868187], [-71.180489, 46.868061], [-71.181564, 46.867504], [-71.181747, 46.867405], [-71.182274, 46.867176], [-71.182495, 46.867058], [-71.182686, 46.866905], [-71.182854, 46.866714], [-71.18303499946063, 46.866491459679544], [-71.183037, 46.866489], [-71.183075, 46.866425], [-71.183762, 46.865776], [-71.184227, 46.865376], [-71.184593, 46.865032], [-71.18486, 46.864742], [-71.185036, 46.864578], [-71.185539, 46.864101], [-71.18562498095638, 46.86402461885914], [-71.185745, 46.863918], [-71.186523, 46.863186], [-71.187172, 46.862633], [-71.187286, 46.862522], [-71.18744865072537, 46.86237483981991], [-71.187454, 46.86237], [-71.188026, 46.861988], [-71.188446, 46.861725], [-71.189262, 46.861191], [-71.190186, 46.860535], [-71.190399, 46.860416], [-71.19061681366468, 46.860299294900656], [-71.190804, 46.860199], [-71.190979, 46.860107], [-71.191689, 46.859833], [-71.191948, 46.859734], [-71.192551, 46.859478], [-71.19278, 46.859394], [-71.193146, 46.859203], [-71.193176, 46.859188], [-71.19322277366399, 46.859161411399334], [-71.193512, 46.858997], [-71.193848, 46.858814], [-71.194008, 46.858723], [-71.19445, 46.858414], [-71.194878, 46.858078], [-71.19532, 46.857697], [-71.1958641610779, 46.857204617265225], [-71.195877, 46.857193], [-71.196007, 46.857063], [-71.196266, 46.856812], [-71.196548, 46.856575], [-71.196838, 46.85635], [-71.197136, 46.856102], [-71.197357, 46.855888], [-71.197708, 46.855606], [-71.198006, 46.855434], [-71.198555, 46.855251], [-71.198837, 46.855122], [-71.199142, 46.854958], [-71.199295, 46.854893], [-71.199493, 46.854794], [-71.199715, 46.854694], [-71.199844, 46.854622], [-71.200165, 46.854393], [-71.20057893892378, 46.854125273392974], [-71.200584, 46.854122], [-71.2006, 46.854103], [-71.20079, 46.853996], [-71.200897, 46.853931], [-71.200958, 46.853905], [-71.201546, 46.853676], [-71.202621, 46.853283], [-71.203247, 46.853035], [-71.203964, 46.852688], [-71.204376, 46.852497], [-71.205147, 46.852169], [-71.205826, 46.851894], [-71.20585130394012, 46.85188335815603], [-71.205933, 46.851849], [-71.206688, 46.851513], [-71.20755, 46.851154], [-71.209206, 46.850452], [-71.209908, 46.850151], [-71.210205, 46.849987], [-71.210403, 46.849762], [-71.210823, 46.84919], [-71.21114351373767, 46.848753109250424], [-71.211159, 46.848732], [-71.211227, 46.848648], [-71.211487, 46.848331], [-71.212082, 46.847942], [-71.212349, 46.84811], [-71.212875, 46.848503], [-71.213432, 46.848106], [-71.213997, 46.847767], [-71.214699, 46.847412], [-71.214882, 46.847313], [-71.21505, 46.847214], [-71.215454, 46.846931], [-71.215584, 46.846851], [-71.215752, 46.846748], [-71.21582776868928, 46.84669017652661], [-71.215866, 46.846661], [-71.215904, 46.84663], [-71.216011, 46.84655], [-71.216385, 46.846313], [-71.217468, 46.845562], [-71.217674, 46.845417], [-71.217819, 46.845306], [-71.217987, 46.845142], [-71.218254, 46.844879], [-71.218475, 46.844662], [-71.218758, 46.844284], [-71.219109, 46.843735], [-71.219299, 46.843407], [-71.219528, 46.843021], [-71.219681, 46.842777], [-71.2200002976737, 46.84214793592644], [-71.220016, 46.842117], [-71.220055, 46.842026], [-71.220108, 46.841938], [-71.220184, 46.841755], [-71.220322, 46.841484], [-71.220497, 46.841087], [-71.220551, 46.840961], [-71.220612, 46.840855], [-71.220665, 46.840755], [-71.220688, 46.84071], [-71.220879, 46.840294], [-71.220963, 46.840141], [-71.221001, 46.840061], [-71.22113536482847, 46.839753880392074], [-71.221176, 46.839661], [-71.221291, 46.839409], [-71.221581, 46.838787], [-71.221863, 46.838238], [-71.222145, 46.837605], [-71.22245, 46.836929], [-71.222755, 46.836281], [-71.222961, 46.835846], [-71.22301298887182, 46.83572778720814], [-71.223045, 46.835655], [-71.223099, 46.835503], [-71.223122, 46.835457], [-71.223228, 46.835339], [-71.22332, 46.835133], [-71.223511, 46.834637], [-71.223587, 46.834473], [-71.22361, 46.834385], [-71.223999, 46.83334], [-71.224129, 46.832985], [-71.224129, 46.832897], [-71.22435275937771, 46.83229525665355], [-71.22438, 46.832222], [-71.224419, 46.83213], [-71.22467, 46.831444], [-71.224983, 46.830605], [-71.225113, 46.830425], [-71.225441, 46.82954], [-71.225494, 46.829315], [-71.225365, 46.829288], [-71.224975169343, 46.8289546401391], [-71.224937, 46.828922], [-71.224022, 46.828136], [-71.223587, 46.827744], [-71.223137, 46.827362], [-71.221474, 46.825897], [-71.220711, 46.825218], [-71.22068, 46.825199], [-71.22056098594409, 46.82507998594409], [-71.220413, 46.824932], [-71.22036, 46.824814], [-71.22007, 46.824474], [-71.219948, 46.824387], [-71.219658, 46.824116], [-71.219467, 46.823921], [-71.219215, 46.823654], [-71.219063, 46.823509], [-71.218887, 46.823383], [-71.218666, 46.823261], [-71.218529, 46.823189], [-71.218361, 46.823101], [-71.218109, 46.822948], [-71.21804, 46.822903], [-71.217735, 46.822727], [-71.21755815626425, 46.82261097130459], [-71.217514, 46.822582], [-71.217476, 46.822548], [-71.217331, 46.822521], [-71.217316, 46.822514], [-71.216812, 46.821949], [-71.215881, 46.82093], [-71.215736, 46.820759], [-71.215767, 46.820534], [-71.215729, 46.820389], [-71.215485, 46.819572], [-71.215424, 46.819347], [-71.215408, 46.818996], [-71.215424, 46.818916], [-71.215546, 46.818287], [-71.215668, 46.817593], [-71.21567491726205, 46.81756893995809], [-71.215691, 46.817513], [-71.215729, 46.817387], [-71.215752, 46.817249], [-71.215736, 46.817097], [-71.215668, 46.816837], [-71.215576, 46.81665], [-71.215546, 46.816597], [-71.216019, 46.816456], [-71.21637, 46.81633], [-71.216827, 46.816139], [-71.217201, 46.815929], [-71.21764180836404, 46.81575286914712], [-71.217659, 46.815746], [-71.217773, 46.815701], [-71.218033, 46.815609], [-71.218269, 46.815517], [-71.218575, 46.815414], [-71.218712, 46.815414], [-71.218857, 46.815369], [-71.218964, 46.815289], [-71.219666, 46.815067], [-71.220398, 46.814838], [-71.220825, 46.814701], [-71.22084465504224, 46.81469398034206], [-71.220909, 46.814671], [-71.221413, 46.814499], [-71.223114, 46.813957], [-71.22387644326092, 46.81370709893119], [-71.223892, 46.813702], [-71.224022, 46.81369], [-71.224129, 46.813652], [-71.224205, 46.813606], [-71.225761, 46.813042], [-71.225525, 46.812851], [-71.22533806087553, 46.81270580456352], [-71.225319, 46.812691], [-71.225243, 46.812622], [-71.224846, 46.81229], [-71.224518, 46.812004], [-71.224358, 46.811935], [-71.224106, 46.81189], [-71.223885, 46.811893], [-71.223724, 46.811901], [-71.223083, 46.812057], [-71.222969, 46.812115], [-71.222221, 46.81229], [-71.222031, 46.812336], [-71.221024, 46.812622], [-71.220764, 46.812683], [-71.220604, 46.812702], [-71.220276, 46.812725], [-71.220093, 46.812725], [-71.219978, 46.812725], [-71.21975699202376, 46.81272748030216], [-71.218285, 46.812744], [-71.218132, 46.812737], [-71.217621, 46.812721], [-71.217529, 46.812725], [-71.217392, 46.812752], [-71.217239, 46.812798], [-71.217041, 46.812889], [-71.216927, 46.812969], [-71.216751, 46.812843], [-71.216568, 46.812683], [-71.216255, 46.812469], [-71.216103, 46.812344], [-71.215698, 46.811962], [-71.21546523680198, 46.811755639791606], [-71.215363, 46.811665], [-71.215271, 46.811569], [-71.214569, 46.810898], [-71.214142, 46.810497], [-71.214195, 46.810467], [-71.214951, 46.810104], [-71.215088, 46.809967], [-71.215248, 46.809902], [-71.215927, 46.80962], [-71.21622265133452, 46.80950083441108], [-71.216515, 46.809383], [-71.216759, 46.809284], [-71.217987, 46.808762], [-71.218468, 46.808559], [-71.218925, 46.808388], [-71.219429, 46.808178], [-71.219734, 46.808041], [-71.220459, 46.807713], [-71.221268, 46.807266], [-71.221672, 46.807076], [-71.22168214238745, 46.80707117129579], [-71.222153, 46.806847], [-71.223137, 46.80629], [-71.223259, 46.806175], [-71.22551, 46.804947], [-71.226547, 46.804337], [-71.22654927157065, 46.80433576868133], [-71.226654, 46.804279], [-71.227898, 46.803543], [-71.228325, 46.803299], [-71.228447, 46.803246], [-71.22956297594845, 46.80260169605005], [-71.22963, 46.802563], [-71.229729, 46.802498], [-71.230721, 46.801918], [-71.231316, 46.801598], [-71.232185, 46.801098], [-71.23307, 46.800587], [-71.23392226718461, 46.80010328078711], [-71.234032, 46.800041], [-71.234177, 46.799961], [-71.23526, 46.799339], [-71.236076, 46.798878], [-71.236984, 46.798359], [-71.237091, 46.798294], [-71.237587, 46.798012], [-71.238106, 46.797714], [-71.239311, 46.797031], [-71.2399247752285, 46.79669077635097], [-71.239937, 46.796684], [-71.240051, 46.796619], [-71.240837, 46.7962], [-71.241417, 46.795883], [-71.241486, 46.795845], [-71.24176, 46.795692], [-71.242134, 46.79549], [-71.24296594139958, 46.79503769162989], [-71.243004, 46.795017], [-71.243095, 46.794971], [-71.243996, 46.794491], [-71.244698, 46.794106], [-71.24572, 46.793507], [-71.246384, 46.793125], [-71.247025, 46.792759], [-71.247467, 46.792507], [-71.248245, 46.792061], [-71.248817, 46.79174], [-71.24882186614056, 46.791737212599095], [-71.249023, 46.791622], [-71.249878, 46.79113], [-71.250687, 46.790676], [-71.25148, 46.79023], [-71.25222, 46.78981], [-71.252922, 46.78941], [-71.253456, 46.789101], [-71.255516, 46.787773], [-71.25552842183909, 46.78776535579133], [-71.255646, 46.787693], [-71.25573, 46.787647], [-71.256233, 46.787346], [-71.256599, 46.787102], [-71.257286, 46.786682], [-71.257843, 46.786346], [-71.258652, 46.785854], [-71.259789, 46.785145], [-71.260086, 46.784954], [-71.261047, 46.784389], [-71.261597, 46.784054], [-71.26245276554467, 46.783663842390894], [-71.262459, 46.783661], [-71.262688, 46.783562], [-71.262794, 46.783508], [-71.26342, 46.783222], [-71.263626, 46.783123], [-71.263794, 46.783031], [-71.263954, 46.782951], [-71.264053, 46.78286], [-71.26416, 46.782742], [-71.264442, 46.782425], [-71.264557, 46.782326], [-71.264633, 46.78228], [-71.26474, 46.782227], [-71.264984, 46.782108], [-71.265259, 46.782005], [-71.265533, 46.781914], [-71.265701, 46.781841], [-71.265976, 46.781715], [-71.266029, 46.781696], [-71.266266, 46.781593], [-71.266418, 46.781513], [-71.269333, 46.779945], [-71.269737, 46.7798], [-71.270096, 46.779606], [-71.2708798822481, 46.779194783082964]] } },{ "type": "Feature", "properties": { "from_id": 0, "to_id": 1, "option": 1, "segment": 2, "transport_mode": "TransportMode.WALK", "departure_time": "2025-03-16 18:45:00", "distance": 753.464, "travel_time": "0 days 00:12:48", "wait_time": "0 days 00:00:00", "route": null, }, "geometry": { "type": "LineString", "coordinates": [[-71.277994, 46.7802434], [-71.2777712, 46.7803629], [-71.277994, 46.7802434], [-71.2779718, 46.7802248], [-71.2772603, 46.7796296], [-71.2772226, 46.779598], [-71.2771992, 46.7795787], [-71.2771757, 46.7795593], [-71.2767449, 46.7793913], [-71.2767852, 46.7793904], [-71.2768179, 46.7793908], [-71.2768459, 46.779395], [-71.2768705, 46.7794044], [-71.2768923, 46.7794165], [-71.2769087, 46.7794324], [-71.2769442, 46.7794764], [-71.2769667, 46.7794983], [-71.2769831, 46.7795025], [-71.2770097, 46.779503], [-71.2770391, 46.7795044], [-71.2770725, 46.7795086], [-71.2771203, 46.7795129], [-71.2767106, 46.7793918], [-71.276329, 46.7796055], [-71.2758412, 46.7798787], [-71.275795, 46.7799046], [-71.2757214, 46.7799458], [-71.2754964, 46.7800717], [-71.2750522, 46.7803218], [-71.2746181, 46.7802352], [-71.2747099, 46.7802025], [-71.2747826, 46.7801777], [-71.274861, 46.7801549], [-71.2745903, 46.7802467], [-71.2745427, 46.7802673], [-71.2737689, 46.7807043], [-71.2740945, 46.7805183], [-71.2736005, 46.7807902], [-71.2736367, 46.7807787], [-71.273148, 46.7807792], [-71.2731843, 46.7807956], [-71.2732258, 46.7808061], [-71.2732758, 46.7808125], [-71.2733588, 46.7808157], [-71.2734362, 46.7808147], [-71.2734946, 46.7808095], [-71.2735358, 46.7808043], [-71.2735685, 46.7807982], [-71.2730807, 46.7807389], [-71.2730248, 46.7806911], [-71.2730134, 46.7806813], [-71.2726785, 46.7805304], [-71.2726981, 46.7805399], [-71.2727135, 46.780541], [-71.2727327, 46.7805373], [-71.2727519, 46.7805299], [-71.2728036, 46.7805021], [-71.2711733, 46.7792582], [-71.2710878, 46.7791845], [-71.2710052, 46.7791906], [-71.2710788, 46.7791576], [-71.2708936, 46.7792503]] } } ] }