{
"type": "FeatureCollection",
"name": "itinerary",
"crs": { "type": "name", "properties": { "name": "urn:ogc:def:crs:OGC:1.3:CRS84" } },
"features": [
{ "type": "Feature", "properties": { "from_id": 0, "to_id": 1, "option": 0, "segment": 0, "transport_mode": "TransportMode.CAR", "departure_time": "NaT", "distance": 21923.785, "travel_time": "0 days 00:43:17", "wait_time": "0 days", "route": null }, "geometry": { "type": "LineString", "coordinates": [ [ -71.1714352, 46.8866478 ], [ -71.1705261, 46.8866984 ], [ -71.1704049, 46.8866938 ], [ -71.1703241, 46.8866662 ], [ -71.1702837, 46.8866201 ], [ -71.17025, 46.8865327 ], [ -71.1700546, 46.884703 ], [ -71.170048, 46.884641 ], [ -71.1711861, 46.8845766 ], [ -71.1719875, 46.8845167 ], [ -71.1720885, 46.8844845 ], [ -71.1721491, 46.8844293 ], [ -71.1721693, 46.8843602 ], [ -71.1721019, 46.8838217 ], [ -71.1719942, 46.8831359 ], [ -71.1718932, 46.8824455 ], [ -71.1718191, 46.882022 ], [ -71.1716709, 46.8816584 ], [ -71.1715283, 46.880616 ], [ -71.1714352, 46.8799415 ], [ -71.1710918, 46.8776491 ], [ -71.1709908, 46.8769908 ], [ -71.1708788, 46.8769762 ], [ -71.170516, 46.8770002 ], [ -71.1701533, 46.8770122 ], [ -71.1698374, 46.8769962 ], [ -71.1694805, 46.8769642 ], [ -71.1691821, 46.8769122 ], [ -71.1688967, 46.8768395 ], [ -71.1685165, 46.8767228 ], [ -71.1692438, 46.8761491 ], [ -71.1695631, 46.8759403 ], [ -71.170112, 46.8756057 ], [ -71.1701892, 46.8755602 ], [ -71.1710676, 46.875043 ], [ -71.1711447, 46.8749904 ], [ -71.1713393, 46.8749102 ], [ -71.1714512, 46.8748394 ], [ -71.1715061, 46.8747974 ], [ -71.1715677, 46.8747504 ], [ -71.1717668, 46.8746003 ], [ -71.1718239, 46.8745574 ], [ -71.17184, 46.8745452 ], [ -71.1727008, 46.8737195 ], [ -71.1730069, 46.8734796 ], [ -71.1732422, 46.8732924 ], [ -71.1739404, 46.8728185 ], [ -71.1742676, 46.8725993 ], [ -71.1743266, 46.8725599 ], [ -71.1745385, 46.8724096 ], [ -71.1747517, 46.8722715 ], [ -71.1749408, 46.8721492 ], [ -71.1756302, 46.871623 ], [ -71.1758523, 46.8714416 ], [ -71.1760407, 46.8713518 ], [ -71.1761772, 46.8712867 ], [ -71.1763105, 46.8712233 ], [ -71.176378, 46.8712031 ], [ -71.176852, 46.8709765 ], [ -71.1772268, 46.8707487 ], [ -71.1780171, 46.8701239 ], [ -71.1787401, 46.8695243 ], [ -71.178841, 46.8694415 ], [ -71.1791011, 46.8692111 ], [ -71.1792791, 46.8689993 ], [ -71.179476, 46.868765 ], [ -71.1798138, 46.8684983 ], [ -71.1798369, 46.8684802 ], [ -71.1800567, 46.8683376 ], [ -71.180342, 46.8681526 ], [ -71.1801771, 46.8667704 ], [ -71.1798482, 46.8643611 ], [ -71.1798427, 46.8643092 ], [ -71.1796616, 46.8617277 ], [ -71.1795451, 46.8589867 ], [ -71.1803441, 46.8589515 ], [ -71.1804973, 46.8589401 ], [ -71.1804334, 46.8581001 ], [ -71.1823092, 46.8580381 ], [ -71.1843192, 46.8577748 ], [ -71.1846014, 46.8577524 ], [ -71.1853041, 46.8576874 ], [ -71.1855813, 46.8576721 ], [ -71.1869943, 46.8575982 ], [ -71.187304, 46.8575682 ], [ -71.1876555, 46.857509 ], [ -71.1880261, 46.857419 ], [ -71.1881902, 46.857347 ], [ -71.1886973, 46.8571246 ], [ -71.189494, 46.8567755 ], [ -71.1901014, 46.8565185 ], [ -71.1905506, 46.8563688 ], [ -71.1912033, 46.8561591 ], [ -71.1920057, 46.8558867 ], [ -71.1924504, 46.8557258 ], [ -71.1936968, 46.855226 ], [ -71.1946501, 46.8548561 ], [ -71.1949529, 46.8547571 ], [ -71.1955477, 46.8545625 ], [ -71.1956728, 46.8545217 ], [ -71.195887, 46.8544539 ], [ -71.1965035, 46.8542534 ], [ -71.1981561, 46.8537707 ], [ -71.1998087, 46.853288 ], [ -71.1999809, 46.8532368 ], [ -71.2005441, 46.8530421 ], [ -71.2009116, 46.8529137 ], [ -71.2030019, 46.852226 ], [ -71.2036059, 46.8520176 ], [ -71.2038529, 46.8519218 ], [ -71.2046162, 46.8515931 ], [ -71.2070583, 46.8505424 ], [ -71.208501, 46.8499162 ], [ -71.2077933, 46.8493671 ], [ -71.2074004, 46.8490622 ], [ -71.2080274, 46.8487494 ], [ -71.2081369, 46.8486796 ], [ -71.2085597, 46.8484104 ], [ -71.2092212, 46.8479804 ], [ -71.2095575, 46.8477617 ], [ -71.2098335, 46.8475893 ], [ -71.2101801, 46.8473686 ], [ -71.2104867, 46.8471701 ], [ -71.2106009, 46.8470961 ], [ -71.2108164, 46.8469567 ], [ -71.2110222, 46.8468457 ], [ -71.2115517, 46.8464837 ], [ -71.2116267, 46.8464324 ], [ -71.2119845, 46.8461994 ], [ -71.2123234, 46.8459787 ], [ -71.2124347, 46.8459061 ], [ -71.2126748, 46.8457496 ], [ -71.2129944, 46.8455416 ], [ -71.2132895, 46.8453147 ], [ -71.2141468, 46.8447287 ], [ -71.2142302, 46.8446759 ], [ -71.2145167, 46.8444906 ], [ -71.2148869, 46.8442512 ], [ -71.2158745, 46.8436471 ], [ -71.2159764, 46.8435848 ], [ -71.2161667, 46.843457 ], [ -71.2164583, 46.8432614 ], [ -71.2165578, 46.8431982 ], [ -71.2173366, 46.8427041 ], [ -71.2178038, 46.8424112 ], [ -71.2182287, 46.8421212 ], [ -71.2186054, 46.8418785 ], [ -71.2187788, 46.8417667 ], [ -71.2190281, 46.8416062 ], [ -71.2193637, 46.8413868 ], [ -71.2198022, 46.8411002 ], [ -71.2199657, 46.8410439 ], [ -71.2201386, 46.8410149 ], [ -71.220302, 46.8410253 ], [ -71.2204976, 46.8410767 ], [ -71.2206685, 46.8407174 ], [ -71.2209321, 46.8401633 ], [ -71.2209982, 46.8400246 ], [ -71.2211311, 46.8397451 ], [ -71.2212795, 46.8394332 ], [ -71.2213553, 46.8392787 ], [ -71.2214693, 46.839047 ], [ -71.2215574, 46.8388677 ], [ -71.22159, 46.8388012 ], [ -71.2218262, 46.8383107 ], [ -71.2218509, 46.8382593 ], [ -71.2218846, 46.838185 ], [ -71.2221399, 46.8376233 ], [ -71.2224599, 46.836945 ], [ -71.222712, 46.8362787 ], [ -71.2227802, 46.8362324 ], [ -71.2230193, 46.8357305 ], [ -71.2231165, 46.8355267 ], [ -71.2231829, 46.8354016 ], [ -71.2234542, 46.8347328 ], [ -71.2234697, 46.8346945 ], [ -71.2235007, 46.8346215 ], [ -71.2235466, 46.8345001 ], [ -71.2235819, 46.8344107 ], [ -71.2239489, 46.8334836 ], [ -71.2239982, 46.8333482 ], [ -71.2241855, 46.8328614 ], [ -71.2243398, 46.8324403 ], [ -71.2243652, 46.832323 ], [ -71.2243924, 46.8321983 ], [ -71.2244732, 46.8319674 ], [ -71.2246498, 46.8314638 ], [ -71.2248743, 46.8308741 ], [ -71.2249678, 46.8306312 ], [ -71.2251263, 46.8302154 ], [ -71.2252004, 46.8300213 ], [ -71.2252491, 46.8299212 ], [ -71.2252711, 46.829865 ], [ -71.2254319, 46.8294279 ], [ -71.2254587, 46.8293547 ], [ -71.2255124, 46.8292035 ], [ -71.2258134, 46.828547 ], [ -71.2259127, 46.8282564 ], [ -71.2259508, 46.8281453 ], [ -71.2259878, 46.8280373 ], [ -71.2262872, 46.8271445 ], [ -71.2265765, 46.8262714 ], [ -71.2266062, 46.8261821 ], [ -71.2266372, 46.8260885 ], [ -71.2266901, 46.8259254 ], [ -71.2267195, 46.8258349 ], [ -71.2267567, 46.8257199 ], [ -71.2272086, 46.824328 ], [ -71.2272409, 46.8242488 ], [ -71.2272697, 46.8241784 ], [ -71.2272697, 46.8241784 ], [ -71.2273454, 46.8240252 ], [ -71.2274738, 46.8238955 ], [ -71.2279169, 46.8237067 ], [ -71.2286352, 46.823398 ], [ -71.2290912, 46.8231972 ], [ -71.2295103, 46.8230182 ], [ -71.2302484, 46.8227027 ], [ -71.2303285, 46.8226684 ], [ -71.229526, 46.8222296 ], [ -71.2294201, 46.8221726 ], [ -71.229139, 46.8220109 ], [ -71.228978, 46.8218966 ], [ -71.2289204, 46.8218557 ], [ -71.2288148, 46.8217807 ], [ -71.2286744, 46.8216711 ], [ -71.2285693, 46.8215756 ], [ -71.2286692, 46.8214993 ], [ -71.2291633, 46.8210645 ], [ -71.2292043, 46.8210312 ], [ -71.229866, 46.8204477 ], [ -71.2300433, 46.8202729 ], [ -71.2304982, 46.8198242 ], [ -71.2307264, 46.8195992 ], [ -71.2311138, 46.8191537 ], [ -71.2312236, 46.8190358 ], [ -71.2313336, 46.8189087 ], [ -71.2312834, 46.8188832 ], [ -71.2312558, 46.8188702 ], [ -71.2311199, 46.8187994 ], [ -71.2309363, 46.8186887 ], [ -71.2307042, 46.8185219 ], [ -71.2305171, 46.8183501 ], [ -71.2303945, 46.8182157 ], [ -71.2302394, 46.8179883 ], [ -71.2300455, 46.8176508 ], [ -71.2299344, 46.8174726 ], [ -71.2298981, 46.8174076 ], [ -71.229403, 46.8165912 ], [ -71.2293348, 46.8164451 ], [ -71.2292652, 46.81629 ], [ -71.2291997, 46.816147 ], [ -71.2291228, 46.8160262 ], [ -71.2289753, 46.8158498 ], [ -71.2288949, 46.8157602 ], [ -71.2287748, 46.8156485 ], [ -71.2305965, 46.8150704 ], [ -71.2308604, 46.8149878 ], [ -71.2314714, 46.814816 ], [ -71.2310312, 46.8142519 ], [ -71.2309683, 46.8141713 ], [ -71.2307067, 46.8137798 ], [ -71.2305503, 46.8135321 ], [ -71.2303352, 46.8132101 ], [ -71.2301138, 46.8128906 ], [ -71.2298646, 46.8125384 ], [ -71.2309639, 46.812165 ], [ -71.2310178, 46.8121494 ], [ -71.231069, 46.8121338 ], [ -71.2311355, 46.8121136 ], [ -71.2311895, 46.8120977 ], [ -71.2319877, 46.8118491 ], [ -71.2322456, 46.8117632 ], [ -71.2323603, 46.8117242 ], [ -71.2327376, 46.8115889 ], [ -71.2331739, 46.8114324 ], [ -71.2332907, 46.8114655 ], [ -71.2333883, 46.8114915 ], [ -71.233516, 46.8115255 ], [ -71.233614, 46.8115517 ], [ -71.2340591, 46.8116739 ], [ -71.2343233, 46.8117441 ], [ -71.2348194, 46.8118559 ], [ -71.2349553, 46.811891 ], [ -71.2351102, 46.8118968 ], [ -71.2352239, 46.8119108 ], [ -71.2357544, 46.8119763 ], [ -71.236374, 46.8120546 ], [ -71.2365621, 46.8120838 ], [ -71.2367317, 46.8120999 ], [ -71.2370438, 46.8121255 ], [ -71.2371188, 46.8121286 ], [ -71.2375182, 46.8121412 ], [ -71.2377573, 46.8121488 ], [ -71.2379143, 46.8121494 ], [ -71.2382486, 46.8121509 ], [ -71.2384313, 46.81213 ], [ -71.2386379, 46.8120842 ], [ -71.238881, 46.812003 ], [ -71.2389392, 46.8119727 ], [ -71.2390409, 46.8119149 ], [ -71.2391972, 46.811829 ], [ -71.2394415, 46.811661 ], [ -71.2394574, 46.8116496 ], [ -71.2397323, 46.8114846 ], [ -71.2398188, 46.8114429 ], [ -71.2399427, 46.8113832 ], [ -71.2407492, 46.8110207 ], [ -71.2411646, 46.8110527 ], [ -71.2414201, 46.8110724 ], [ -71.2415029, 46.811078 ], [ -71.2417963, 46.8111036 ], [ -71.2420656, 46.8110949 ], [ -71.2422895, 46.8110518 ], [ -71.2431993, 46.8108105 ], [ -71.2435563, 46.8107005 ], [ -71.2437194, 46.8106632 ], [ -71.2438587, 46.8106315 ], [ -71.2441436, 46.8105702 ], [ -71.2447844, 46.8104213 ], [ -71.2450338, 46.8103634 ], [ -71.2452026, 46.8102704 ], [ -71.2455523, 46.8100776 ], [ -71.2457459, 46.8099627 ], [ -71.2465364, 46.8094942 ], [ -71.2467158, 46.809397 ], [ -71.2469258, 46.8093297 ], [ -71.2473045, 46.8091851 ], [ -71.2473856, 46.8091542 ], [ -71.2474336, 46.809136 ], [ -71.247505, 46.8091128 ], [ -71.2475877, 46.8090879 ], [ -71.2476765, 46.809062 ], [ -71.2477687, 46.8090375 ], [ -71.2478563, 46.8090172 ], [ -71.2479104, 46.8090056 ], [ -71.2479293, 46.8090015 ], [ -71.2480393, 46.8089809 ], [ -71.2481193, 46.808967 ], [ -71.2481876, 46.8089555 ], [ -71.2482591, 46.8089448 ], [ -71.2483208, 46.8089368 ], [ -71.2483775, 46.8089295 ], [ -71.2485016, 46.808915 ], [ -71.2485903, 46.8089042 ], [ -71.2489259, 46.8088689 ], [ -71.2490532, 46.8088572 ], [ -71.2491849, 46.8088451 ], [ -71.2495622, 46.8088105 ], [ -71.2498545, 46.8087601 ], [ -71.2501617, 46.808664 ], [ -71.2503413, 46.8086152 ], [ -71.2505985, 46.8085454 ], [ -71.2508717, 46.8084352 ], [ -71.2512461, 46.8082842 ], [ -71.2513042, 46.8082674 ], [ -71.2518781, 46.8080887 ], [ -71.2521103, 46.8080172 ], [ -71.2525117, 46.8079006 ], [ -71.2529328, 46.8077684 ], [ -71.2530963, 46.8077225 ], [ -71.2533036, 46.8076645 ], [ -71.2538218, 46.8075222 ], [ -71.2539819, 46.8074938 ], [ -71.2541114, 46.8074804 ], [ -71.2543555, 46.8074476 ], [ -71.2546093, 46.8074317 ], [ -71.2549506, 46.8074353 ], [ -71.2553161, 46.8074302 ], [ -71.2557789, 46.8074754 ], [ -71.2560527, 46.8075098 ], [ -71.2554663, 46.8061884 ], [ -71.2560364, 46.8060532 ], [ -71.2563379, 46.8059847 ], [ -71.2569989, 46.8058345 ], [ -71.2573949, 46.8056826 ], [ -71.2576768, 46.8055143 ], [ -71.2577444, 46.8054671 ], [ -71.2578074, 46.8054212 ], [ -71.2578605, 46.8053833 ], [ -71.2579706, 46.8053049 ], [ -71.2582301, 46.8050842 ], [ -71.2584584, 46.80489 ], [ -71.2585235, 46.8048361 ], [ -71.2586843, 46.8047179 ], [ -71.2587877, 46.8046687 ], [ -71.2589002, 46.8046153 ], [ -71.2591701, 46.8045496 ], [ -71.2598235, 46.8044689 ], [ -71.2599276, 46.8044561 ], [ -71.2607526, 46.8043284 ], [ -71.261449, 46.8042252 ], [ -71.2615871, 46.8042048 ], [ -71.261809, 46.8041801 ], [ -71.2619589, 46.8041801 ], [ -71.2620489, 46.8042007 ], [ -71.2621208, 46.8042335 ], [ -71.263246, 46.805121 ], [ -71.2638254, 46.8055779 ], [ -71.264543, 46.8044648 ], [ -71.2623961, 46.8027114 ], [ -71.2612748, 46.8017357 ], [ -71.2618059, 46.8014387 ], [ -71.2623122, 46.8011555 ], [ -71.2624698, 46.8010675 ], [ -71.2633618, 46.8004982 ], [ -71.2636196, 46.8003513 ], [ -71.2651192, 46.7994958 ], [ -71.2653903, 46.7993462 ], [ -71.2662268, 46.7988621 ], [ -71.2669437, 46.7984089 ], [ -71.2672554, 46.7982119 ], [ -71.2675131, 46.7980694 ], [ -71.2676905, 46.7979873 ], [ -71.2678849, 46.7979166 ], [ -71.268096, 46.7978742 ], [ -71.2682398, 46.7978489 ], [ -71.2684888, 46.7978294 ], [ -71.2688038, 46.7978299 ], [ -71.2691805, 46.7978698 ], [ -71.270405, 46.7981088 ], [ -71.2726747, 46.7985519 ], [ -71.2728291, 46.7986047 ], [ -71.2729624, 46.7986768 ], [ -71.2730606, 46.7987488 ], [ -71.2742815, 46.7997479 ], [ -71.2747657, 46.8001514 ], [ -71.2749551, 46.8003099 ], [ -71.2751095, 46.8004107 ], [ -71.2752709, 46.8004732 ], [ -71.2754322, 46.8005116 ], [ -71.2755936, 46.800526 ], [ -71.2758743, 46.8005212 ], [ -71.2800702, 46.8001466 ], [ -71.2802265, 46.8001307 ], [ -71.2829465, 46.7998553 ], [ -71.2831544, 46.7998343 ], [ -71.2843572, 46.7997126 ], [ -71.2843312, 46.7995469 ], [ -71.2843507, 46.7993778 ], [ -71.2844092, 46.7992532 ], [ -71.2844807, 46.799084 ], [ -71.2846238, 46.7988481 ], [ -71.2855417, 46.7974456 ], [ -71.2858553, 46.7969484 ], [ -71.2859279, 46.7968415 ], [ -71.2859971, 46.7967127 ], [ -71.2860346, 46.7965804 ], [ -71.2860328, 46.796462 ], [ -71.286012, 46.7963317 ], [ -71.2859556, 46.796211 ], [ -71.2858913, 46.7961168 ], [ -71.2857223, 46.7958671 ], [ -71.2856087, 46.795725 ], [ -71.2855648, 46.7956314 ], [ -71.2855582, 46.7953895 ], [ -71.2856768, 46.7950207 ], [ -71.285756, 46.7948875 ], [ -71.2858628, 46.7947959 ], [ -71.2859734, 46.7947451 ], [ -71.2861944, 46.7946772 ], [ -71.2864876, 46.7946231 ], [ -71.2871926, 46.7945396 ], [ -71.2876833, 46.7945173 ], [ -71.2894141, 46.794435 ], [ -71.2903763, 46.7943858 ], [ -71.2910957, 46.794346 ], [ -71.2916214, 46.7943407 ], [ -71.2917961, 46.7943478 ], [ -71.2920616, 46.7943799 ], [ -71.292254, 46.7944236 ], [ -71.2924179, 46.7944999 ], [ -71.2924862, 46.7945492 ], [ -71.2925596, 46.7946229 ], [ -71.2926037, 46.7947079 ], [ -71.2926262, 46.7947868 ], [ -71.2926384, 46.7949044 ], [ -71.29266, 46.7950396 ], [ -71.2924462, 46.7950557 ], [ -71.2912493, 46.7951526 ], [ -71.2909944, 46.7951724 ], [ -71.2906451, 46.7951997 ], [ -71.2902417, 46.7951863 ], [ -71.2898839, 46.7951032 ], [ -71.2896215, 46.7949665 ], [ -71.2894692, 46.7948511 ], [ -71.2893198, 46.7946721 ], [ -71.2892412, 46.7944887 ], [ -71.2892186, 46.7941583 ], [ -71.2892244, 46.7938855 ], [ -71.2893558, 46.7935956 ], [ -71.2894694, 46.7934301 ], [ -71.2896369, 46.7932859 ], [ -71.2898045, 46.7931709 ], [ -71.2900629, 46.7930558 ], [ -71.2902847, 46.7929824 ], [ -71.290519, 46.7929281 ], [ -71.2910308, 46.7928445 ], [ -71.2913484, 46.7928234 ], [ -71.2922831, 46.7927614 ], [ -71.2923021, 46.7928741 ], [ -71.2923579, 46.7931425 ], [ -71.2923662, 46.7932737 ], [ -71.2923428, 46.793367 ], [ -71.2922951, 46.793451 ], [ -71.2922289, 46.7935268 ], [ -71.2921541, 46.79358 ], [ -71.2920563, 46.793635 ], [ -71.291941, 46.7936784 ], [ -71.2918071, 46.7937104 ], [ -71.2916464, 46.7937394 ], [ -71.2913688, 46.7937774 ], [ -71.2906438, 46.7938576 ], [ -71.2893835, 46.7939652 ], [ -71.2879086, 46.7940896 ], [ -71.2870108, 46.7941371 ], [ -71.2868534, 46.7941408 ], [ -71.2866929, 46.794142 ], [ -71.2865682, 46.7941311 ], [ -71.2864419, 46.7941059 ], [ -71.286337, 46.7940805 ], [ -71.2862302, 46.7940456 ], [ -71.2861126, 46.7939963 ], [ -71.2860122, 46.7939381 ], [ -71.2859305, 46.7938775 ], [ -71.2858551, 46.7938014 ], [ -71.2857991, 46.7937074 ], [ -71.285774, 46.793627 ], [ -71.2857614, 46.7935386 ], [ -71.2857659, 46.793468 ], [ -71.2857748, 46.7933969 ], [ -71.2858008, 46.7933181 ], [ -71.2858173, 46.7932563 ], [ -71.2858482, 46.7931801 ], [ -71.2859001, 46.7930803 ], [ -71.2859581, 46.793012 ], [ -71.2860329, 46.7929354 ], [ -71.2861549, 46.7928435 ], [ -71.286281, 46.7927645 ], [ -71.2867748, 46.7925205 ], [ -71.2869, 46.7924569 ], [ -71.2868122, 46.7923727 ], [ -71.2867589, 46.7923286 ], [ -71.2866992, 46.7922824 ], [ -71.286648, 46.7922467 ], [ -71.2865613, 46.7922026 ], [ -71.2864768, 46.7921797 ], [ -71.2864479, 46.7921764 ], [ -71.2863843, 46.7921695 ], [ -71.2862367, 46.7921549 ], [ -71.2861603, 46.7921512 ], [ -71.2860865, 46.7921539 ], [ -71.2859765, 46.7921631 ], [ -71.2858692, 46.7921833 ], [ -71.285778, 46.7922182 ], [ -71.2857029, 46.7922549 ], [ -71.2856198, 46.7923119 ], [ -71.2855715, 46.7923604 ], [ -71.2855206, 46.7924372 ], [ -71.285479, 46.7925374 ], [ -71.2854204, 46.7925217 ], [ -71.2853649, 46.7924924 ], [ -71.2847754, 46.7920475 ], [ -71.2845851, 46.7919039 ], [ -71.2844367, 46.7918038 ], [ -71.2837628, 46.7913492 ], [ -71.2837192, 46.7913198 ], [ -71.283558, 46.7911596 ], [ -71.283434, 46.790909 ], [ -71.2832718, 46.7901639 ], [ -71.2831504, 46.7900212 ], [ -71.2830505, 46.7899456 ], [ -71.2826054, 46.789609 ], [ -71.282123, 46.789259 ], [ -71.282064, 46.789085 ], [ -71.2820373, 46.7890065 ], [ -71.281897, 46.7885926 ], [ -71.2817227, 46.7880788 ], [ -71.2815871, 46.7876792 ], [ -71.2812915, 46.7873712 ], [ -71.2811701, 46.7872448 ], [ -71.2810557, 46.7870401 ], [ -71.2810001, 46.7869405 ], [ -71.2808505, 46.7867017 ], [ -71.2807432, 46.7865196 ], [ -71.2805395, 46.7862354 ], [ -71.2805257, 46.7862157 ], [ -71.280471, 46.7861374 ], [ -71.2803827, 46.7860556 ], [ -71.2802595, 46.7861059 ], [ -71.2791902, 46.7864878 ], [ -71.2788663, 46.7865701 ], [ -71.2785913, 46.7866426 ], [ -71.2782718, 46.7867294 ], [ -71.2779726, 46.7868114 ], [ -71.2775859, 46.7869143 ], [ -71.2774711, 46.7869455 ], [ -71.2773933, 46.7868128 ], [ -71.277368, 46.7867724 ], [ -71.277209, 46.7865277 ], [ -71.2769443, 46.7862302 ], [ -71.2765053, 46.7858442 ], [ -71.2763983, 46.7857501 ], [ -71.2763265, 46.785687 ], [ -71.2762499, 46.7856231 ], [ -71.2757077, 46.7851705 ], [ -71.2750582, 46.7846434 ], [ -71.2750214, 46.7846135 ], [ -71.2749424, 46.7845494 ], [ -71.2748981, 46.7845155 ], [ -71.2745657, 46.7842611 ], [ -71.2744269, 46.7841447 ], [ -71.2743956, 46.7841203 ], [ -71.2743028, 46.7840479 ], [ -71.2743715, 46.784009 ], [ -71.2749624, 46.7836742 ], [ -71.2752741, 46.7834985 ], [ -71.2759148, 46.7831363 ], [ -71.276872, 46.7825897 ], [ -71.2770055, 46.7825164 ], [ -71.2773989, 46.7822932 ], [ -71.2776945, 46.7821275 ], [ -71.2778524, 46.7820389 ], [ -71.2782285, 46.7818278 ], [ -71.2782548, 46.7818134 ], [ -71.2788176, 46.7815058 ], [ -71.2789626, 46.7814266 ], [ -71.2792178, 46.7812807 ], [ -71.2793198, 46.7812222 ], [ -71.2792098, 46.7811232 ], [ -71.2790933, 46.7810283 ], [ -71.2790268, 46.7809715 ], [ -71.2787981, 46.78078 ], [ -71.2784193, 46.7804571 ], [ -71.2783509, 46.7803963 ], [ -71.2782809, 46.7803341 ], [ -71.2781036, 46.780185 ], [ -71.277994, 46.7802434 ], [ -71.2777712, 46.7803629 ] ] } }
]
}
